ONEWEB-0056             
1 45159U 20008AE  24235.51779119  .00000103  00000+0  25908-3 0  9990
2 45159  87.8981 168.3024 0002076  72.6624 287.4730 13.10368648222022
ONEWEB-0057             
1 45160U 20008AF  24235.75349904 -.00000292  00000+0 -87237-3 0  9997
2 45160  87.8986 168.2587 0001979  73.3666 286.7678 13.10369143221952
ONEWEB-0058             
1 45161U 20008AG  24235.51129564  .00000476  00000+0  13265-2 0  9991
2 45161  87.8978 168.3379 0001866  77.3695 282.7641 13.10370415221506
ONEWEB-0059             
1 45162U 20008AH  24235.58420007  .00000521  00000+0  14562-2 0  9997
2 45162  87.8985 168.3066 0001918  80.0655 280.0689 13.10371142221414
ONEWEB-0062             
1 45163U 20008AJ  24235.76345103 -.00000550  00000+0 -16116-2 0  9992
2 45163  87.8986 168.2555 0002016  87.9918 272.1441 13.10370627222052
ONEWEB-0065             
1 45164U 20008AK  24235.36010925 -.00000125  00000+0 -39304-3 0  9993
2 45164  87.8987 168.3439 0002111  72.9522 287.1836 13.10372139220947
ONEWEB-0066             
1 45424U 20020A   24235.74627361  .00000135  00000+0  34572-3 0  9997
2 45424  87.8999 153.1618 0001613  68.0192 292.1107 13.11419490215736
ONEWEB-0067             
1 45425U 20020B   24235.78371554  .00000000  00000+0 -36000-4 0  9993
2 45425  87.8983 153.1076 0001886  66.7299 293.4028 13.11414711215796
